start=new Date('2022-10-20T00:00:00.000Z').valueOf();
sats=[{"TLE_LINE1":"1 53052U 22077K   22292.69698546  .00001536  00000-0  12419-3 0  9998","RA_OF_ASC_NODE":"112.2204","MEAN_ELEMENT_THEORY":"SGP4","SITE":"AFWTR","RCS_SIZE":"LARGE","BSTAR":"0.00012419000000","GP_ID":"215624717","CLASSIFICATION_TYPE":"U","NORAD_CAT_ID":"53052","ARG_OF_PERICENTER":"37.8443","COUNTRY_CODE":"US","REV_AT_EPOCH":"1532","SEMIMAJOR_AXIS":"6941.155","DECAY_DATE":null,"INCLINATION":"97.6557","EPOCH":"2022-10-19T16:43:39.543744","EPHEMERIS_TYPE":"0","ECCENTRICITY":"0.00021870","MEAN_MOTION_DOT":"0.00001536","OBJECT_ID":"2022-077K","APOAPSIS":"564.538","OBJECT_NAME":"STARLINK-4341","MEAN_ANOMALY":"322.2934","PERIOD":"95.920","PERIAPSIS":"561.502","TLE_LINE2":"2 53052  97.6557 112.2204 0002187  37.8443 322.2934 15.01257462 15324","MEAN_MOTION_DDOT":"0.0000000000000","OBJECT_TYPE":"PAYLOAD","REF_FRAME":"TEME","FILE":"3623738","CENTER_NAME":"EARTH","ELEMENT_SET_NO":"999","LAUNCH_DATE":"2022-07-11","MEAN_MOTION":"15.01257462","TIME_SYSTEM":"UTC"},{"MEAN_MOTION":"15.01252514","TIME_SYSTEM":"UTC","ELEMENT_SET_NO":"999","LAUNCH_DATE":"2022-07-11","FILE":"3623738","REF_FRAME":"TEME","OBJECT_TYPE":"PAYLOAD","CENTER_NAME":"EARTH","MEAN_MOTION_DDOT":"0.0000000000000","PERIAPSIS":"561.790","PERIOD":"95.920","TLE_LINE2":"2 53053  97.6551 112.3445 0001794  55.8396 304.2998 15.01252514 15342","OBJECT_ID":"2022-077L","APOAPSIS":"564.280","MEAN_ANOMALY":"304.2998","OBJECT_NAME":"STARLINK-4337","MEAN_MOTION_DOT":"-0.00000373","EPHEMERIS_TYPE":"0","ECCENTRICITY":"0.00017940","EPOCH":"2022-10-19T19:44:57.645024","SEMIMAJOR_AXIS":"6941.170","DECAY_DATE":null,"REV_AT_EPOCH":"1534","INCLINATION":"97.6551","ARG_OF_PERICENTER":"55.8396","COUNTRY_CODE":"US","CLASSIFICATION_TYPE":"U","NORAD_CAT_ID":"53053","GP_ID":"215623810","BSTAR":"-0.00002448900000","RCS_SIZE":"LARGE","SITE":"AFWTR","TLE_LINE1":"1 53053U 22077L   22292.82288941 -.00000373  00000-0 -24489-4 0  9999","RA_OF_ASC_NODE":"112.3445","MEAN_ELEMENT_THEORY":"SGP4"},{"TIME_SYSTEM":"UTC","MEAN_MOTION":"15.01258082","LAUNCH_DATE":"2022-07-11","ELEMENT_SET_NO":"999","CENTER_NAME":"EARTH","FILE":"3623738","OBJECT_TYPE":"PAYLOAD","REF_FRAME":"TEME","MEAN_MOTION_DDOT":"0.0000000000000","TLE_LINE2":"2 53054  97.6547 112.2184 0002136  35.3738 324.7628 15.01258082 15322","PERIOD":"95.920","PERIAPSIS":"561.535","MEAN_ANOMALY":"324.7628","OBJECT_NAME":"STARLINK-4339","OBJECT_ID":"2022-077M","APOAPSIS":"564.500","MEAN_MOTION_DOT":"0.00000729","ECCENTRICITY":"0.00021360","EPHEMERIS_TYPE":"0","EPOCH":"2022-10-19T16:40:59.871360","INCLINATION":"97.6547","DECAY_DATE":null,"SEMIMAJOR_AXIS":"6941.153","REV_AT_EPOCH":"1532","COUNTRY_CODE":"US","ARG_OF_PERICENTER":"35.3738","NORAD_CAT_ID":"53054","CLASSIFICATION_TYPE":"U","BSTAR":"0.00006138000000","GP_ID":"215624556","RCS_SIZE":"LARGE","SITE":"AFWTR","RA_OF_ASC_NODE":"112.2184","MEAN_ELEMENT_THEORY":"SGP4","TLE_LINE1":"1 53054U 22077M   22292.69513740  .00000729  00000-0  61380-4 0  9997"},{"MEAN_MOTION_DOT":"0.00000189","MEAN_ANOMALY":"307.7749","OBJECT_NAME":"STARLINK-4338","APOAPSIS":"564.173","OBJECT_ID":"2022-077N","TLE_LINE2":"2 53055  97.6537 112.2728 0001631  52.3623 307.7749 15.01250693 15333","PERIAPSIS":"561.908","PERIOD":"95.920","MEAN_MOTION_DDOT":"0.0000000000000","CENTER_NAME":"EARTH","FILE":"3623738","REF_FRAME":"TEME","OBJECT_TYPE":"PAYLOAD","LAUNCH_DATE":"2022-07-11","ELEMENT_SET_NO":"999","TIME_SYSTEM":"UTC","MEAN_MOTION":"15.01250693","MEAN_ELEMENT_THEORY":"SGP4","RA_OF_ASC_NODE":"112.2728","TLE_LINE1":"1 53055U 22077N   22292.75438468  .00000189  00000-0  19323-4 0  9998","RCS_SIZE":"LARGE","SITE":"AFWTR","GP_ID":"215624392","BSTAR":"0.00001932300000","ARG_OF_PERICENTER":"52.3623","COUNTRY_CODE":"US","CLASSIFICATION_TYPE":"U","NORAD_CAT_ID":"53055","INCLINATION":"97.6537","DECAY_DATE":null,"SEMIMAJOR_AXIS":"6941.176","REV_AT_EPOCH":"1533","EPHEMERIS_TYPE":"0","ECCENTRICITY":"0.00016310","EPOCH":"2022-10-19T18:06:18.836352"},{"MEAN_ELEMENT_THEORY":"SGP4","RA_OF_ASC_NODE":"112.2139","TLE_LINE1":"1 53056U 22077P   22292.69143865 -.00000059  00000-0  93320-8 0  9996","RCS_SIZE":"LARGE","SITE":"AFWTR","GP_ID":"215624955","BSTAR":"0.00000000933200","COUNTRY_CODE":"US","ARG_OF_PERICENTER":"49.3875","CLASSIFICATION_TYPE":"U","NORAD_CAT_ID":"53056","INCLINATION":"97.6544","DECAY_DATE":null,"SEMIMAJOR_AXIS":"6941.169","REV_AT_EPOCH":"1532","ECCENTRICITY":"0.00019330","EPHEMERIS_TYPE":"0","EPOCH":"2022-10-19T16:35:40.299360","MEAN_MOTION_DOT":"-0.00000059","MEAN_ANOMALY":"310.7517","OBJECT_NAME":"STARLINK-4314","OBJECT_ID":"2022-077P","APOAPSIS":"564.376","TLE_LINE2":"2 53056  97.6544 112.2139 0001933  49.3875 310.7517 15.01252881 15325","PERIAPSIS":"561.692","PERIOD":"95.920","MEAN_MOTION_DDOT":"0.0000000000000","CENTER_NAME":"EARTH","FILE":"3623738","REF_FRAME":"TEME","OBJECT_TYPE":"PAYLOAD","LAUNCH_DATE":"2022-07-11","ELEMENT_SET_NO":"999","TIME_SYSTEM":"UTC","MEAN_MOTION":"15.01252881"},{"MEAN_MOTION_DDOT":"0.0000000000000","PERIOD":"95.919","PERIAPSIS":"562.324","TLE_LINE2":"2 53057  97.6530 112.2597 0000988  74.7688 285.3645 15.01260748 15333","OBJECT_ID":"2022-077Q","APOAPSIS":"563.695","OBJECT_NAME":"STARLINK-4252","MEAN_ANOMALY":"285.3645","MEAN_MOTION_DOT":"-0.00001631","MEAN_MOTION":"15.01260748","TIME_SYSTEM":"UTC","ELEMENT_SET_NO":"999","LAUNCH_DATE":"2022-07-11","OBJECT_TYPE":"PAYLOAD","REF_FRAME":"TEME","FILE":"3623738","CENTER_NAME":"EARTH","CLASSIFICATION_TYPE":"U","NORAD_CAT_ID":"53057","COUNTRY_CODE":"US","ARG_OF_PERICENTER":"74.7688","BSTAR":"-0.00012244000000","GP_ID":"215624228","SITE":"AFWTR","RCS_SIZE":"LARGE","TLE_LINE1":"1 53057U 22077Q   22292.75068178 -.00001631  00000-0 -12244-3 0  9996","MEAN_ELEMENT_THEORY":"SGP4","RA_OF_ASC_NODE":"112.2597","EPOCH":"2022-10-19T18:00:58.905792","ECCENTRICITY":"0.00009880","EPHEMERIS_TYPE":"0","REV_AT_EPOCH":"1533","DECAY_DATE":null,"SEMIMAJOR_AXIS":"6941.145","INCLINATION":"97.6530"},{"MEAN_MOTION_DDOT":"0.0000000000000","PERIAPSIS":"562.087","PERIOD":"95.920","TLE_LINE2":"2 53058  97.6542 112.3393 0001347  54.6341 305.5009 15.01256639 15349","OBJECT_ID":"2022-077R","APOAPSIS":"563.957","MEAN_ANOMALY":"305.5009","OBJECT_NAME":"STARLINK-4317","MEAN_MOTION_DOT":"0.00002335","MEAN_MOTION":"15.01256639","TIME_SYSTEM":"UTC","ELEMENT_SET_NO":"999","LAUNCH_DATE":"2022-07-11","FILE":"3623738","OBJECT_TYPE":"PAYLOAD","REF_FRAME":"TEME","CENTER_NAME":"EARTH","ARG_OF_PERICENTER":"54.6341","COUNTRY_CODE":"US","CLASSIFICATION_TYPE":"U","NORAD_CAT_ID":"53058","GP_ID":"215624139","BSTAR":"0.00018632000000","RCS_SIZE":"LARGE","SITE":"AFWTR","TLE_LINE1":"1 53058U 22077R   22292.82129119  .00002335  00000-0  18632-3 0  9995","RA_OF_ASC_NODE":"112.3393","MEAN_ELEMENT_THEORY":"SGP4","ECCENTRICITY":"0.00013470","EPHEMERIS_TYPE":"0","EPOCH":"2022-10-19T19:42:39.558816","SEMIMAJOR_AXIS":"6941.157","DECAY_DATE":null,"REV_AT_EPOCH":"1534","INCLINATION":"97.6542"},{"INCLINATION":"97.6517","SEMIMAJOR_AXIS":"6941.151","DECAY_DATE":null,"REV_AT_EPOCH":"1533","EPHEMERIS_TYPE":"0","ECCENTRICITY":"0.00014710","EPOCH":"2022-10-19T17:55:59.989440","RCS_SIZE":"LARGE","SITE":"AFWTR","MEAN_ELEMENT_THEORY":"SGP4","RA_OF_ASC_NODE":"112.2530","TLE_LINE1":"1 53059U 22077S   22292.74722210  .00000017  00000-0  59300-5 0  9992","COUNTRY_CODE":"US","ARG_OF_PERICENTER":"126.4316","CLASSIFICATION_TYPE":"U","NORAD_CAT_ID":"53059","GP_ID":"215623975","BSTAR":"0.00000593000000","LAUNCH_DATE":"2022-07-11","ELEMENT_SET_NO":"999","CENTER_NAME":"EARTH","FILE":"3623738","OBJECT_TYPE":"PAYLOAD","REF_FRAME":"TEME","TIME_SYSTEM":"UTC","MEAN_MOTION":"15.01258787","MEAN_ANOMALY":"233.7044","OBJECT_NAME":"STARLINK-4320","APOAPSIS":"564.037","OBJECT_ID":"2022-077S","MEAN_MOTION_DOT":"0.00000017","MEAN_MOTION_DDOT":"0.0000000000000","TLE_LINE2":"2 53059  97.6517 112.2530 0001471 126.4316 233.7044 15.01258787 15338","PERIOD":"95.920","PERIAPSIS":"561.995"},{"DECAY_DATE":null,"SEMIMAJOR_AXIS":"6941.127","REV_AT_EPOCH":"1534","INCLINATION":"97.6518","ECCENTRICITY":"0.00013460","EPHEMERIS_TYPE":"0","EPOCH":"2022-10-19T19:39:36.868608","TLE_LINE1":"1 53060U 22077T   22292.81917672  .00000208  00000-0  20752-4 0  9990","RA_OF_ASC_NODE":"112.3282","MEAN_ELEMENT_THEORY":"SGP4","RCS_SIZE":"LARGE","SITE":"AFWTR","GP_ID":"215624718","BSTAR":"0.00002075200000","ARG_OF_PERICENTER":"67.5617","COUNTRY_CODE":"US","NORAD_CAT_ID":"53060","CLASSIFICATION_TYPE":"U","FILE":"3623738","REF_FRAME":"TEME","OBJECT_TYPE":"PAYLOAD","CENTER_NAME":"EARTH","ELEMENT_SET_NO":"999","LAUNCH_DATE":"2022-07-11","MEAN_MOTION":"15.01266382","TIME_SYSTEM":"UTC","MEAN_MOTION_DOT":"0.00000208","APOAPSIS":"563.926","OBJECT_ID":"2022-077T","MEAN_ANOMALY":"292.5750","OBJECT_NAME":"STARLINK-4305","PERIOD":"95.919","PERIAPSIS":"562.058","TLE_LINE2":"2 53060  97.6518 112.3282 0001346  67.5617 292.5750 15.01266382 15344","MEAN_MOTION_DDOT":"0.0000000000000"},{"DECAY_DATE":null,"SEMIMAJOR_AXIS":"6941.140","REV_AT_EPOCH":"1534","INCLINATION":"97.6540","ECCENTRICITY":"0.00013990","EPHEMERIS_TYPE":"0","EPOCH":"2022-10-19T19:28:57.674496","RCS_SIZE":"LARGE","SITE":"AFWTR","TLE_LINE1":"1 53061U 22077U   22292.81177864 -.00000209  00000-0 -11686-4 0  9991","RA_OF_ASC_NODE":"112.3133","MEAN_ELEMENT_THEORY":"SGP4","COUNTRY_CODE":"US","ARG_OF_PERICENTER":"129.4186","NORAD_CAT_ID":"53061","CLASSIFICATION_TYPE":"U","GP_ID":"215623811","BSTAR":"-0.00001168600000","ELEMENT_SET_NO":"999","LAUNCH_DATE":"2022-07-11","FILE":"3623738","REF_FRAME":"TEME","OBJECT_TYPE":"PAYLOAD","CENTER_NAME":"EARTH","MEAN_MOTION":"15.01262234","TIME_SYSTEM":"UTC","APOAPSIS":"563.976","OBJECT_ID":"2022-077U","MEAN_ANOMALY":"230.7162","OBJECT_NAME":"STARLINK-4308","MEAN_MOTION_DOT":"-0.00000209","MEAN_MOTION_DDOT":"0.0000000000000","PERIOD":"95.919","PERIAPSIS":"562.034","TLE_LINE2":"2 53061  97.6540 112.3133 0001399 129.4186 230.7162 15.01262234 15345"}];
